CTC2_L_00555016-05
1 29748U 25294HA  26037.47798611  .00000000  00000+0  00000-0 0  9992
2 29748  98.7000 180.0000 0000000   0.0000 270.0000 14.24551582    12
CTC2_L_00555016-06
1 29749U 23327TL  26037.47798611  .00000000  00000+0  00000-0 0  9998
2 29749  98.7000 180.0000 0000000   0.0000 315.0000 14.24551582    13
CTC2_L_00555016-07
1 29750U 26486KR  26037.47798611  .00000000  00000+0  00000-0 0  9999
2 29750  98.7000 180.0000 0000000   0.0000   0.0000 14.24551582    16
CTC2_L_00555016-08
1 29751U 23265VR  26037.47798611  .00000000  00000+0  00000-0 0  9992
2 29751  98.7000 180.0000 0000000   0.0000  45.0000 14.24551582    16
CTC2_L_00555017-01
1 29752U 25688KR  26037.47798611  .00000000  00000+0  00000-0 0  9994
2 29752  98.7000 192.0000 0000000   0.0000  96.0000 14.24551582    16
CTC2_L_00555017-02
1 29753U 24276QC  26037.47798611  .00000000  00000+0  00000-0 0  9997
2 29753  98.7000 192.0000 0000000   0.0000 141.0000 14.24551582    18
CTC2_L_00555017-03
1 29754U 23292KW  26037.47798611  .00000000  00000+0  00000-0 0  9995
2 29754  98.7000 192.0000 0000000   0.0000 186.0000 14.24551582    18
CTC2_L_00555017-04
1 29755U 26323RW  26037.47798611  .00000000  00000+0  00000-0 0  9994
2 29755  98.7000 192.0000 0000000   0.0000 231.0000 14.24551582    10
CTC2_L_00555017-05
1 29756U 25706AU  26037.47798611  .00000000  00000+0  00000-0 0  9999
2 29756  98.7000 192.0000 0000000   0.0000 276.0000 14.24551582    10
CTC2_L_00555017-06
1 29757U 26081PX  26037.47798611  .00000000  00000+0  00000-0 0  9997
2 29757  98.7000 192.0000 0000000   0.0000 321.0000 14.24551582    12
CTC2_L_00555017-07
1 29758U 25022JR  26037.47798611  .00000000  00000+0  00000-0 0  9992
2 29758  98.7000 192.0000 0000000   0.0000   6.0000 14.24551582    13
CTC2_L_00555017-08
1 29759U 25730PC  26037.47798611  .00000000  00000+0  00000-0 0  9999
2 29759  98.7000 192.0000 0000000   0.0000  51.0000 14.24551582    14
CTC2_L_00555018-01
1 29760U 22589JZ  26037.47798611  .00000000  00000+0  00000-0 0  9990
2 29760  98.7000 204.0000 0000000   0.0000 102.0000 14.24551582    17
CTC2_L_00555018-02
1 29761U 23892PG  26037.47798611  .00000000  00000+0  00000-0 0  9999
2 29761  98.7000 204.0000 0000000   0.0000 147.0000 14.24551582    17
CTC2_L_00555018-03
1 29762U 24170MK  26037.47798611  .00000000  00000+0  00000-0 0  9990
2 29762  98.7000 204.0000 0000000   0.0000 192.0000 14.24551582    18
CTC2_L_00555018-04
1 29763U 23214P   26037.47798611  .00000000  00000+0  00000-0 0  9999
2 29763  98.7000 204.0000 0000000   0.0000 237.0000 14.24551582    19
CTC2_L_00555018-05
1 29764U 22363TZ  26037.47798611  .00000000  00000+0  00000-0 0  9994
2 29764  98.7000 204.0000 0000000   0.0000 282.0000 14.24551582    10
CTC2_L_00555018-06
1 29765U 22931QC  26037.47798611  .00000000  00000+0  00000-0 0  9996
2 29765  98.7000 204.0000 0000000   0.0000 327.0000 14.24551582    11
CTC2_L_00555018-07
1 29766U 25341FR  26037.47798611  .00000000  00000+0  00000-0 0  9995
2 29766  98.7000 204.0000 0000000   0.0000  12.0000 14.24551582    13
CTC2_L_00555018-08
1 29767U 25154MP  26037.47798611  .00000000  00000+0  00000-0 0  9998
2 29767  98.7000 204.0000 0000000   0.0000  57.0000 14.24551582    13
CTC2_L_00555019-01
1 29768U 22142RI  26037.47798611  .00000000  00000+0  00000-0 0  9993
2 29768  98.7000 216.0000 0000000   0.0000 108.0000 14.24551582    14
CTC2_L_00555019-02
1 29769U 24185XG  26037.47798611  .00000000  00000+0  00000-0 0  9993
2 29769  98.7000 216.0000 0000000   0.0000 153.0000 14.24551582    15
CTC2_L_00555019-03
1 29770U 24425PF  26037.47798611  .00000000  00000+0  00000-0 0  9992
2 29770  98.7000 216.0000 0000000   0.0000 198.0000 14.24551582    16
CTC2_L_00555019-04
1 29771U 24756QC  26037.47798611  .00000000  00000+0  00000-0 0  9990
2 29771  98.7000 216.0000 0000000   0.0000 243.0000 14.24551582    18
CTC2_L_00555019-05
1 29772U 23055TD  26037.47798611  .00000000  00000+0  00000-0 0  9992
2 29772  98.7000 216.0000 0000000   0.0000 288.0000 14.24551582    18
CTC2_L_00555019-06
1 29773U 23920EF  26037.47798611  .00000000  00000+0  00000-0 0  9994
2 29773  98.7000 216.0000 0000000   0.0000 333.0000 14.24551582    10
CTC2_L_00555019-07
1 29774U 25752FY  26037.47798611  .00000000  00000+0  00000-0 0  9990
2 29774  98.7000 216.0000 0000000   0.0000  18.0000 14.24551582    11
CTC2_L_00555019-08
1 29775U 25690ZZ  26037.47798611  .00000000  00000+0  00000-0 0  9992
2 29775  98.7000 216.0000 0000000   0.0000  63.0000 14.24551582    12
CTC2_L_00555020-01
1 29776U 25127NW  26037.47798611  .00000000  00000+0  00000-0 0  9998
2 29776  98.7000 228.0000 0000000   0.0000 114.0000 14.24551582    13
CTC2_L_00555020-02
1 29777U 23321VK  26037.47798611  .00000000  00000+0  00000-0 0  9993
2 29777  98.7000 228.0000 0000000   0.0000 159.0000 14.24551582    13
CTC2_L_00555020-03
1 29778U 25214SH  26037.47798611  .00000000  00000+0  00000-0 0  9997
2 29778  98.7000 228.0000 0000000   0.0000 204.0000 14.24551582    15
CTC2_L_00555020-04
1 29779U 25863XB  26037.47798611  .00000000  00000+0  00000-0 0  9998
2 29779  98.7000 228.0000 0000000   0.0000 249.0000 14.24551582    15
CTC2_L_00555020-05
1 29780U 25891AM  26037.47798611  .00000000  00000+0  00000-0 0  9991
2 29780  98.7000 228.0000 0000000   0.0000 294.0000 14.24551582    17
CTC2_L_00555020-06
1 29781U 23914EA  26037.47798611  .00000000  00000+0  00000-0 0  9996
2 29781  98.7000 228.0000 0000000   0.0000 339.0000 14.24551582    18
CTC2_L_00555020-07
1 29782U 26128QJ  26037.47798611  .00000000  00000+0  00000-0 0  9997
2 29782  98.7000 228.0000 0000000   0.0000  24.0000 14.24551582    10
CTC2_L_00555020-08
1 29783U 23773TR  26037.47798611  .00000000  00000+0  00000-0 0  9991
2 29783  98.7000 228.0000 0000000   0.0000  69.0000 14.24551582    10
CTC2_L_00555021-01
1 29784U 25265OC  26037.47798611  .00000000  00000+0  00000-0 0  9990
2 29784  98.7000 240.0000 0000000   0.0000 120.0000 14.24551582    13
CTC2_L_00555021-02
1 29785U 22574EP  26037.47798611  .00000000  00000+0  00000-0 0  9991
2 29785  98.7000 240.0000 0000000   0.0000 165.0000 14.24551582    13
CTC2_L_00555021-03
1 29786U 22062KB  26037.47798611  .00000000  00000+0  00000-0 0  9994
2 29786  98.7000 240.0000 0000000   0.0000 210.0000 14.24551582    15
CTC2_L_00555021-04
1 29787U 23323TV  26037.47798611  .00000000  00000+0  00000-0 0  9996
2 29787  98.7000 240.0000 0000000   0.0000 255.0000 14.24551582    15
CTC2_L_00555021-05
1 29788U 23355CG  26037.47798611  .00000000  00000+0  00000-0 0  9992
2 29788  98.7000 240.0000 0000000   0.0000 300.0000 14.24551582    17
CTC2_L_00555021-06
1 29789U 23911ZI  26037.47798611  .00000000  00000+0  00000-0 0  9991
2 29789  98.7000 240.0000 0000000   0.0000 345.0000 14.24551582    17
CTC2_L_00555021-07
1 29790U 23475CT  26037.47798611  .00000000  00000+0  00000-0 0  9998
2 29790  98.7000 240.0000 0000000   0.0000  30.0000 14.24551582    10
CTC2_L_00555021-08
1 29791U 25647HY  26037.47798611  .00000000  00000+0  00000-0 0  9992
2 29791  98.7000 240.0000 0000000   0.0000  75.0000 14.24551582    10
CTC2_L_00555022-01
1 29792U 22777IJ  26037.47798611  .00000000  00000+0  00000-0 0  9994
2 29792  98.7000 252.0000 0000000   0.0000 126.0000 14.24551582    11
CTC2_L_00555022-02
1 29793U 23177IT  26037.47798611  .00000000  00000+0  00000-0 0  9990
2 29793  98.7000 252.0000 0000000   0.0000 171.0000 14.24551582    12
CTC2_L_00555022-03
1 29794U 23913RC  26037.47798611  .00000000  00000+0  00000-0 0  9999
2 29794  98.7000 252.0000 0000000   0.0000 216.0000 14.24551582    13
CTC2_L_00555022-04
1 29795U 24311FH  26037.47798611  .00000000  00000+0  00000-0 0  9993
2 29795  98.7000 252.0000 0000000   0.0000 261.0000 14.24551582    14
CTC2_L_00555022-05
1 29796U 24357FK  26037.47798611  .00000000  00000+0  00000-0 0  9994
2 29796  98.7000 252.0000 0000000   0.0000 306.0000 14.24551582    15
CTC2_L_00555022-06
1 29797U 23564NS  26037.47798611  .00000000  00000+0  00000-0 0  9994
2 29797  98.7000 252.0000 0000000   0.0000 351.0000 14.24551582    16
CTC2_L_00555022-07
1 29798U 24330FS  26037.47798611  .00000000  00000+0  00000-0 0  9997
2 29798  98.7000 252.0000 0000000   0.0000  36.0000 14.24551582    17
CTC2_L_00555022-08
1 29799U 24941QQ  26037.47798611  .00000000  00000+0  00000-0 0  9996
2 29799  98.7000 252.0000 0000000   0.0000  81.0000 14.24551582    18
CTC2_L_00555023-01
1 29800U 25346JT  26037.47798611  .00000000  00000+0  00000-0 0  9999
2 29800  98.7000 264.0000 0000000   0.0000 132.0000 14.24551582    11
CTC2_L_00555023-02
1 29801U 25455VG  26037.47798611  .00000000  00000+0  00000-0 0  9991
2 29801  98.7000 264.0000 0000000   0.0000 177.0000 14.24551582    11
CTC2_L_00555023-03
1 29802U 25845JE  26037.47798611  .00000000  00000+0  00000-0 0  9995
2 29802  98.7000 264.0000 0000000   0.0000 222.0000 14.24551582    13
CTC2_L_00555023-04
1 29803U 22600YT  26037.47798611  .00000000  00000+0  00000-0 0  9992
2 29803  98.7000 264.0000 0000000   0.0000 267.0000 14.24551582    13
CTC2_L_00555023-05
1 29804U 23603TT  26037.47798611  .00000000  00000+0  00000-0 0  9997
2 29804  98.7000 264.0000 0000000   0.0000 312.0000 14.24551582    15
CTC2_L_00555023-06
1 29805U 22195GG  26037.47798611  .00000000  00000+0  00000-0 0  9993
2 29805  98.7000 264.0000 0000000   0.0000 357.0000 14.24551582    15
CTC2_L_00555023-07
1 29806U 24741ZJ  26037.47798611  .00000000  00000+0  00000-0 0  9993
2 29806  98.7000 264.0000 0000000   0.0000  42.0000 14.24551582    17
CTC2_L_00555023-08
1 29807U 23413GK  26037.47798611  .00000000  00000+0  00000-0 0  9999
2 29807  98.7000 264.0000 0000000   0.0000  87.0000 14.24551582    17
CTC2_L_00555024-01
1 29808U 23940WS  26037.47798611  .00000000  00000+0  00000-0 0  9995
2 29808  98.7000 276.0000 0000000   0.0000 138.0000 14.24551582    18
CTC2_L_00555024-02
1 29809U 25294YE  26037.47798611  .00000000  00000+0  00000-0 0  9990
2 29809  98.7000 276.0000 0000000   0.0000 183.0000 14.24551582    19
